{
    "links": {
        "self": "http://www.neowsapp.com/rest/v1/neo/54017216?api_key=iIulBulltgU6a56xZRHN4H3l9WmuAYTsLGpBGhQ2"
    },
    "id": "54017216",
    "neo_reference_id": "54017216",
    "name": "(2020 KF4)",
    "designation": "2020 KF4",
    "nasa_jpl_url": "http://ssd.jpl.nasa.gov/sbdb.cgi?sstr=54017216",
    "absolute_magnitude_h": 24.371,
    "estimated_diameter": {
        "kilometers": {
            "estimated_diameter_min": 0.0355103519,
            "estimated_diameter_max": 0.0794035608
        },
        "meters": {
            "estimated_diameter_min": 35.5103519424,
            "estimated_diameter_max": 79.4035608481
        },
        "miles": {
            "estimated_diameter_min": 0.0220651029,
            "estimated_diameter_max": 0.04933907
        },
        "feet": {
            "estimated_diameter_min": 116.5037830666,
            "estimated_diameter_max": 260.5103785729
        }
    },
    "is_potentially_hazardous_asteroid": false,
    "close_approach_data": [
        {
            "close_approach_date": "2020-05-15",
            "close_approach_date_full": "2020-May-15 10:51",
            "epoch_date_close_approach": 1589539860000,
            "relative_velocity": {
                "kilometers_per_second": "9.52559442",
                "kilometers_per_hour": "34292.1399121549",
                "miles_per_hour": "21307.8021581943"
            },
            "miss_distance": {
                "astronomical": "0.135144167",
                "lunar": "52.571080963",
                "kilometers": "20217279.52612429",
                "miles": "12562434.969683602"
            },
            "orbiting_body": "Earth"
        },
        {
            "close_approach_date": "2020-10-12",
            "close_approach_date_full": "2020-Oct-12 05:18",
            "epoch_date_close_approach": 1602479880000,
            "relative_velocity": {
                "kilometers_per_second": "14.1173477567",
                "kilometers_per_hour": "50822.4519240055",
                "miles_per_hour": "31579.0951968911"
            },
            "miss_distance": {
                "astronomical": "0.3921519741",
                "lunar": "152.5471179249",
                "kilometers": "58665100.041655167",
                "miles": "36452802.8269566246"
            },
            "orbiting_body": "Earth"
        }
    ],
    "orbital_data": {
        "orbit_id": "1",
        "orbit_determination_date": "2020-05-24 19:42:14",
        "first_observation_date": "2020-05-14",
        "last_observation_date": "2020-05-24",
        "data_arc_in_days": 10,
        "observations_used": 15,
        "orbit_uncertainty": "8",
        "minimum_orbit_intersection": ".107373",
        "jupiter_tisserand_invariant": "6.771",
        "epoch_osculation": "2458991.5",
        "eccentricity": ".3587025292115609",
        "semi_major_axis": ".8624870913075359",
        "inclination": "13.81691181618574",
        "ascending_node_longitude": "61.13047525736188",
        "orbital_period": "292.5683433499123",
        "perihelion_distance": ".5531107902432003",
        "perihelion_argument": "13.25847821623709",
        "aphelion_distance": "1.171863392371871",
        "perihelion_time": "2458867.119074287479",
        "mean_anomaly": "153.0484561104891",
        "mean_motion": "1.230481725664486",
        "equinox": "J2000",
        "orbit_class": {
            "orbit_class_type": "ATE",
            "orbit_class_description": "Near-Earth asteroid orbits similar to that of 2062 Aten",
            "orbit_class_range": "a (semi-major axis) < 1.0 AU; q (perihelion) > 0.983 AU"
        }
    },
    "is_sentry_object": false
}